{
"type": "FeatureCollection",
"name": "speedbump",
"crs": { "type": "name", "properties": { "name": "urn:ogc:def:crs:OGC:1.3:CRS84" } },
"features": [
{ "type": "Feature", "properties": { "ID": "C419AS300004", "AdminCode": "413", "Type": "1", "LinkID": "A2231R780073", "Ref_Lane": 4, "Maker": "而⑥", "UpdateDate": "20230101", "Version": "2019", "Remark": null, "HistType": "C4002", "HistRemark": null }, "geometry": { "type": "Polygon", "coordinates": [ [ [ 127.277663315463769, 36.473012119659245, 53.649375 ], [ 127.277684025339425, 36.472991329476464, 53.572875 ], [ 127.277704735203912, 36.47297053928974, 53.496375 ], [ 127.277725445057285, 36.472949749099136, 53.419875 ], [ 127.277746154899518, 36.47292895890449, 53.343375 ], [ 127.277735728043538, 36.472922329555445, 53.265 ], [ 127.277714974186097, 36.472942886438354, 53.33634375 ], [ 127.277694220317628, 36.472963443317354, 53.4076875 ], [ 127.277673466438117, 36.472984000192326, 53.47903125 ], [ 127.277652712547578, 36.473004557063369, 53.550375 ], [ 127.277663315463769, 36.473012119659245, 53.649375 ] ] ] } },
{ "type": "Feature", "properties": { "ID": "C419AS300003", "AdminCode": "413", "Type": "1", "LinkID": "A219AS303268", "Ref_Lane": 2, "Maker": "而⑥", "UpdateDate": "20230101", "Version": "2019", "Remark": null, "HistType": "C4002", "HistRemark": null }, "geometry": { "type": "Polygon", "coordinates": [ [ [ 127.277724037521466, 36.473113122906085, 53.544375 ], [ 127.277707895269899, 36.473126415421788, 53.473583333333337 ], [ 127.277691753012832, 36.473139707935118, 53.402791666666666 ], [ 127.277675610750251, 36.473153000446096, 53.332 ], [ 127.277686822998049, 36.473160011840228, 53.426375 ], [ 127.277702974657799, 36.473146714956371, 53.478708333333337 ], [ 127.27771912631205, 36.473133418070169, 53.531041666666667 ], [ 127.277735277960787, 36.473120121181616, 53.583375 ], [ 127.277724037521466, 36.473113122906085, 53.544375 ] ] ] } },
{ "type": "Feature", "properties": { "ID": "C419AS300002", "AdminCode": "413", "Type": "1", "LinkID": "A219AS300080", "Ref_Lane": 4, "Maker": "而⑥", "UpdateDate": "20190620", "Version": "2019", "Remark": null, "HistType": null, "HistRemark": null }, "geometry": { "type": "Polygon", "coordinates": [ [ [ 127.27813788368384, 36.473313896659846, 53.438420314600535 ], [ 127.278115188999266, 36.473333728092243, 53.385340121710946 ], [ 127.278092494303095, 36.473353559519936, 53.332259928821358 ], [ 127.278069799595315, 36.473373390942974, 53.279179735931763 ], [ 127.278047104875952, 36.473393222361302, 53.226099543042174 ], [ 127.278058482079217, 36.473400751862613, 53.201104358236925 ], [ 127.278081195016824, 36.473380903246209, 53.256242329527502 ], [ 127.278103907942821, 36.473361054625116, 53.311380300818087 ], [ 127.278126620857165, 36.473341205999333, 53.366518272108664 ], [ 127.278149333759913, 36.473321357368818, 53.421656243399241 ], [ 127.27813788368384, 36.473313896659846, 53.438420314600535 ] ] ] } },
{ "type": "Feature", "properties": { "ID": "C419AS300001", "AdminCode": "413", "Type": "1", "LinkID": "A219AS300077", "Ref_Lane": 2, "Maker": "而⑥", "UpdateDate": "20190620", "Version": "2019", "Remark": null, "HistType": null, "HistRemark": null }, "geometry": { "type": "Polygon", "coordinates": [ [ [ 127.278173514789799, 36.473206708658722, 53.3205 ], [ 127.278157713725363, 36.473219863437862, 53.356833333333327 ], [ 127.278141912655528, 36.473233018214671, 53.393166666666666 ], [ 127.278126111580391, 36.473246172989263, 53.4295 ], [ 127.278137556417434, 36.473253393894232, 53.316 ], [ 127.278153146083895, 36.473240167710671, 53.271 ], [ 127.278168735745041, 36.473226941524906, 53.226 ], [ 127.278184325400886, 36.47321371533701, 53.181 ], [ 127.278173514789799, 36.473206708658722, 53.3205 ] ] ] } },
{ "type": "Feature", "properties": { "ID": "C419AS300005", "AdminCode": "413", "Type": "1", "LinkID": "A219AS302455", "Ref_Lane": 1, "Maker": "새한항업컨소시엄", "UpdateDate": "20190909", "Version": "2019", "Remark": null, "HistType": null, "HistRemark": null }, "geometry": { "type": "Polygon", "coordinates": [ [ [ 127.271905326279438, 36.503044496100635, 56.300750396728496 ], [ 127.271903698945863, 36.503031312118054, 56.227750396728496 ], [ 127.271872810080708, 36.503034839720925, 56.273750396728495 ], [ 127.271841921213081, 36.50303836731571, 56.319750396728494 ], [ 127.271845138095827, 36.503051367009682, 56.336750396728497 ], [ 127.271875232188819, 36.503047931559038, 56.318750396728497 ], [ 127.271905326279438, 36.503044496100635, 56.300750396728496 ] ] ] } },
{ "type": "Feature", "properties": { "ID": "C419AS300006", "AdminCode": "413", "Type": "1", "LinkID": "A219AS302455", "Ref_Lane": 1, "Maker": "새한항업컨소시엄", "UpdateDate": "20190909", "Version": "2019", "Remark": null, "HistType": null, "HistRemark": null }, "geometry": { "type": "Polygon", "coordinates": [ [ [ 127.271919991542575, 36.503124617477596, 56.2747503967285 ], [ 127.271917070456354, 36.503111369680106, 56.304750396728501 ], [ 127.271889337487679, 36.503116074266877, 56.3327503967285 ], [ 127.271861604515919, 36.503120778847112, 56.360750396728498 ], [ 127.271865146294545, 36.503133729164269, 56.349750396728496 ], [ 127.271892568920038, 36.503129173324098, 56.312250396728501 ], [ 127.271919991542575, 36.503124617477596, 56.2747503967285 ] ] ] } },
{ "type": "Feature", "properties": { "ID": "C419AS300007", "AdminCode": "413", "Type": "1", "LinkID": "A219AS302491", "Ref_Lane": 2, "Maker": "새한항업컨소시엄", "UpdateDate": "20190909", "Version": "2019", "Remark": null, "HistType": null, "HistRemark": null }, "geometry": { "type": "Polygon", "coordinates": [ [ [ 127.2714142287779, 36.503919686417177, 58.982118359029236 ], [ 127.271430357517303, 36.503914670233144, 58.958909043353792 ], [ 127.271420948988649, 36.503895390843908, 58.860750396728498 ], [ 127.27141477863286, 36.503882654809644, 58.858250396728494 ], [ 127.271408608279017, 36.503869918775067, 58.855750396728496 ], [ 127.271401017444035, 36.503854023550034, 58.628835499077525 ], [ 127.271399786580218, 36.503854399663815, 58.633040932050577 ], [ 127.271385907498058, 36.503858638545651, 58.680814225325747 ], [ 127.271394556082399, 36.503877728530682, 58.830750396728497 ], [ 127.271405600119607, 36.503900757048754, 58.891750396728497 ], [ 127.2714142287779, 36.503919686417177, 58.982118359029236 ] ] ] } },
{ "type": "Feature", "properties": { "ID": "C419AS300008", "AdminCode": "413", "Type": "1", "LinkID": "A219AS302491", "Ref_Lane": 2, "Maker": "새한항업컨소시엄", "UpdateDate": "20190909", "Version": "2019", "Remark": null, "HistType": null, "HistRemark": null }, "geometry": { "type": "Polygon", "coordinates": [ [ [ 127.271511360479408, 36.503889583048398, 58.683300076980295 ], [ 127.271526573304826, 36.503884877018969, 58.608658730118634 ], [ 127.271520917886178, 36.503872547034931, 58.5397503967285 ], [ 127.271511604877986, 36.503853013994124, 58.473750396728498 ], [ 127.271504792503819, 36.503838507141374, 58.381640959725871 ], [ 127.271497980132082, 36.503824000288304, 58.289531522723237 ], [ 127.271482501041334, 36.503828727853431, 58.347594886857628 ], [ 127.271491331528949, 36.503847861646015, 58.601750396728498 ], [ 127.271503020992128, 36.503872494982794, 58.668750396728498 ], [ 127.271511360479408, 36.503889583048398, 58.683300076980295 ] ] ] } },
{ "type": "Feature", "properties": { "ID": "C419AS300009", "AdminCode": "413", "Type": "1", "LinkID": "A219AS302456", "Ref_Lane": 2, "Maker": "새한항업컨소시엄", "UpdateDate": "20190909", "Version": "2019", "Remark": null, "HistType": null, "HistRemark": null }, "geometry": { "type": "Polygon", "coordinates": [ [ [ 127.27304500390288, 36.503441123090298, 55.446750396728497 ], [ 127.273051119066793, 36.503455097666404, 55.424750396728498 ], [ 127.27305723423278, 36.503469072242225, 55.4027503967285 ], [ 127.273064609855254, 36.503486368690858, 55.351250396728503 ], [ 127.273071985480854, 36.50350366513905, 55.299750396728498 ], [ 127.273087543136185, 36.503499446515036, 55.241750396728499 ], [ 127.273080604918405, 36.503483066812741, 55.2762503967285 ], [ 127.273073666703411, 36.503466687110077, 55.310750396728501 ], [ 127.273067368440763, 36.50345190764002, 55.348250396728503 ], [ 127.273061070180376, 36.503437128169651, 55.385750396728497 ], [ 127.27304500390288, 36.503441123090298, 55.446750396728497 ] ] ] } },
{ "type": "Feature", "properties": { "ID": "C419AS300010", "AdminCode": "413", "Type": "1", "LinkID": "A219AS302456", "Ref_Lane": 2, "Maker": "새한항업컨소시엄", "UpdateDate": "20190909", "Version": "2019", "Remark": null, "HistType": null, "HistRemark": null }, "geometry": { "type": "Polygon", "coordinates": [ [ [ 127.272949932046487, 36.503467230050873, 55.4057503967285 ], [ 127.272960834750819, 36.503492618046195, 55.339750396728498 ], [ 127.27296919661984, 36.503511332604518, 55.276690580286967 ], [ 127.272977558492713, 36.503530047162286, 55.213630763845444 ], [ 127.272992907772775, 36.503525928875376, 55.210803660716522 ], [ 127.272985162852962, 36.503507955797161, 55.31927702872251 ], [ 127.272977417936602, 36.503489982718513, 55.427750396728499 ], [ 127.272971542310344, 36.503476534418077, 55.452750396728497 ], [ 127.272965666686005, 36.503463086117335, 55.477750396728496 ], [ 127.272949932046487, 36.503467230050873, 55.4057503967285 ] ] ] } },
{ "type": "Feature", "properties": { "ID": "C419AS300011", "AdminCode": "413", "Type": "1", "LinkID": "A219AS302438", "Ref_Lane": 1, "Maker": "새한항업컨소시엄", "UpdateDate": "20190909", "Version": "2019", "Remark": null, "HistType": null, "HistRemark": null }, "geometry": { "type": "Polygon", "coordinates": [ [ [ 127.272303699406919, 36.504291723754186, 58.888569977719655 ], [ 127.27228378441238, 36.504291266497901, 58.958750396728497 ], [ 127.272261584564333, 36.50429089983357, 58.923750396728501 ], [ 127.272260902081314, 36.504304023306887, 58.974750396728496 ], [ 127.272283067846814, 36.504304416519595, 58.993750396728501 ], [ 127.272302995670472, 36.504304927932715, 58.994495196594102 ], [ 127.272303042946419, 36.504304408421056, 58.989750396728496 ], [ 127.272303699406919, 36.504291723754186, 58.888569977719655 ] ] ] } },
{ "type": "Feature", "properties": { "ID": "C419AS300012", "AdminCode": "413", "Type": "1", "LinkID": "A219AS302438", "Ref_Lane": 1, "Maker": "새한항업컨소시엄", "UpdateDate": "20190909", "Version": "2019", "Remark": null, "HistType": null, "HistRemark": null }, "geometry": { "type": "Polygon", "coordinates": [ [ [ 127.272301838551215, 36.504206853469825, 58.169105648028228 ], [ 127.272281570745861, 36.504208008407971, 58.144750396728497 ], [ 127.272257721796038, 36.504209500236364, 58.122750396728499 ], [ 127.272259161899157, 36.504222836276142, 58.303750396728496 ], [ 127.272282870662508, 36.504221358906591, 58.356750396728501 ], [ 127.272302806536388, 36.504219953862425, 58.285659095379813 ], [ 127.27230228212153, 36.504211544453064, 58.208750396728497 ], [ 127.272301838551215, 36.504206853469825, 58.169105648028228 ] ] ] } }
]
}
